PROBA-1                 
1 26958U 01049B   26192.49599589  .00002322  00000+0  15178-3 0  9995
2 26958  97.9608 201.8777 0055950  41.8601 318.6884 15.07607514347285
CUTE-1 (CO-55)          
1 27844U 03031E   26192.48336144  .00000156  00000+0  86496-4 0  9993
2 27844  98.6741 200.7369 0010751 112.2064 248.0256 14.24350058195137
CUBESAT XI-IV (CO-57)   
1 27848U 03031J   26191.99204951  .00000130  00000+0  76313-4 0  9991
2 27848  98.6772 199.9452 0010410 130.5633 229.6453 14.23633076194769
APRIZESAT 4             
1 35684U 09041D   26191.58820809  .00000399  00000+0  54416-4 0  9993
2 35684  98.1405 267.3745 0042009 244.8711 114.8142 14.83909911914832
APRIZESAT 3             
1 35686U 09041F   26192.37396106  .00001064  00000+0  96629-4 0  9993
2 35686  98.2090 346.7610 0061044 348.5178  11.4645 14.96303123919996
PROBA-2                 
1 36037U 09059B   26192.44940836  .00000104  00000+0  34681-4 0  9990
2 36037  98.2457  15.4667 0012742 200.5903 159.4782 14.54872679885055
APRIZESAT 5             
1 37792U 11044E   26192.26050610  .00000487  00000+0  68923-4 0  9998
2 37792  98.2450 125.9841 0050745 285.7225  73.8393 14.81123616802354
APRIZESAT 6             
1 37793U 11044F   26192.21633218  .00000423  00000+0  67179-4 0  9997
2 37793  98.2343 103.2048 0043385  10.9568 150.0729 14.76953133800699
PROBA-V                 
1 39159U 13021A   26192.50791001  .00000044  00000+0  37242-4 0  9996
2 39159  98.3603 169.9157 0005358  68.5370 291.6381 14.23603039684577
APRIZESAT 7             
1 39416U 13066A   26192.30430426  .00000621  00000+0  66713-4 0  9996
2 39416  97.7720 145.1796 0036972 129.7775 230.6710 14.91614326684829
APRIZESAT 8             
1 39425U 13066K   26192.28797823  .00000439  00000+0  53525-4 0  9994
2 39425  97.8228 139.4214 0045176 204.8859 155.0179 14.87692659683253
BUGSAT-1 (TITA)         
1 40014U 14033E   26192.52842488  .00004390  00000+0  23106-3 0  9991
2 40014  98.0432 286.5047 0029073  97.8510 262.6023 15.15860051659520
SAUDISAT 4              
1 40016U 14033G   26192.19468495  .00000290  00000+0  44979-4 0  9995
2 40016  97.7611 337.5031 0044594 357.1555   2.9397 14.79573077649620
APRIZESAT 9             
1 40018U 14033J   26190.60588905  .00000477  00000+0  77298-4 0  9997
2 40018  97.9087 323.2598 0067246 127.5578 233.1765 14.74247790646869
APRIZESAT 10            
1 40019U 14033K   26192.14025243  .00000320  00000+0  58073-4 0  9997
2 40019  97.9677 318.5692 0078400 196.3308 163.5372 14.70907744645773
TECHDEMOSAT-1 (TDS-1)   
1 40076U 14037H   26192.48854654  .00004045  00000+0  22929-3 0  9995
2 40076  98.3822 187.1175 0006558 170.1563 189.9796 15.13645551651904
TECHNOSAT               
1 42829U 17042E   26191.38633588  .00002596  00000+0  18607-3 0  9998
2 42829  97.4303 348.1655 0017861  18.8202 341.3681 15.05092056490191
FLYING LAPTOP           
1 42831U 17042G   26192.51429750  .00002255  00000+0  17907-3 0  9995
2 42831  97.4788 347.1294 0019851  44.1451 316.1353 15.01297837490105
HAWK-A                  
1 43765U 18099H   26191.44827113  .00004564  00000+0  18328-3 0  9994
2 43765  97.3905 243.3829 0034224 200.7420 159.2431 15.24925601416642
HAWK-B                  
1 43794U 18099AN  26192.08898191  .00003765  00000+0  16070-3 0  9995
2 43794  97.3953 243.3798 0030984 216.7407 143.1706 15.23085137416673
HAWK-C                  
1 43799U 18099AT  26191.56820876  .00005828  00000+0  20836-3 0  9994
2 43799  97.3884 244.5291 0039834 200.2244 159.7420 15.28444337417484
SALSAT                  
1 46495U 20068K   26192.47522477  .00004471  00000+0  15610-3 0  9993
2 46495  97.8856 197.0247 0008815 206.7694 153.3092 15.30138870319078
HAWK-2C                 
1 47502U 21006CT  26192.07963072  .00004091  00000+0  12285-3 0  9995
2 47502  97.2272 235.9148 0008566 112.4872 247.7279 15.34955387303162
HAWK-2A                 
1 47505U 21006CW  26192.08189499  .00004155  00000+0  12470-3 0  9999
2 47505  97.2314 236.6088 0008071 115.6969 244.5109 15.34970478303161
HAWK-2B                 
1 47508U 21006CZ  26192.07576360  .00004560  00000+0  13605-3 0  9999
2 47508  97.2184 234.8967 0008652 114.0430 246.1720 15.35097668303165
HAWK-3B                 
1 48931U 21059BE  26192.53493956  .00032448  00000+0  25309-3 0  9998
2 48931  97.6639  31.5827 0004169 212.0570 148.0439 15.71629594281672
HAWK-3C                 
1 48948U 21059BX  26192.53462929  .00032017  00000+0  24970-3 0  9997
2 48948  97.6752  37.3098 0004249 211.5765 148.5243 15.71633627281679
HAWK-3A                 
1 48957U 21059CG  26192.53451706  .00032665  00000+0  25471-3 0  9994
2 48957  97.6700  34.4950 0004352 212.7236 147.3758 15.71633774281679
HAWK-5C                 
1 52754U 22057Y   26191.38716226  .00012612  00000+0  20969-3 0  9993
2 52754  97.6608 352.5680 0003254   5.7511 354.3777 15.52213217229944
HAWK-5B                 
1 52756U 22057AA  26192.41842372  .00011394  00000+0  18947-3 0  9991
2 52756  97.6622 352.0196 0003839 348.0368  12.0792 15.52235209230101
HAWK-5A                 
1 52757U 22057AB  26192.48269419  .00011269  00000+0  18741-3 0  9997
2 52757  97.6615 352.9189 0003695 353.1809   6.9392 15.52236799230116
